[{"OBJECT_NAME":"QIANFAN-52","OBJECT_ID":"2024-232S","EPOCH":"2026-03-04T10:07:10.612704","MEAN_MOTION":13.51000673,"ECCENTRICITY":0.0014208,"INCLINATION":89.0052,"RA_OF_ASC_NODE":32.8615,"ARG_OF_PERICENTER":323.4853,"MEAN_ANOMALY":36.5328,"EPHEMERIS_TYPE":0,"CLASSIFICATION_TYPE":"U","NORAD_CAT_ID":62253,"ELEMENT_SET_NO":999,"REV_AT_EPOCH":7897,"BSTAR":0.00010773,"MEAN_MOTION_DOT":8.1e-7,"MEAN_MOTION_DDOT":0},{"OBJECT_NAME":"QIANFAN-53","OBJECT_ID":"2024-232T","EPOCH":"2026-03-04T11:24:09.688032","MEAN_MOTION":13.51003354,"ECCENTRICITY":0.0013132,"INCLINATION":89.0059,"RA_OF_ASC_NODE":32.9667,"ARG_OF_PERICENTER":325.1097,"MEAN_ANOMALY":34.9192,"EPHEMERIS_TYPE":0,"CLASSIFICATION_TYPE":"U","NORAD_CAT_ID":62254,"ELEMENT_SET_NO":999,"REV_AT_EPOCH":7894,"BSTAR":7.4677e-5,"MEAN_MOTION_DOT":6.0e-7,"MEAN_MOTION_DDOT":0},{"OBJECT_NAME":"QIANFAN-54","OBJECT_ID":"2024-232U","EPOCH":"2026-03-04T10:36:48.447360","MEAN_MOTION":13.51002801,"ECCENTRICITY":0.0003185,"INCLINATION":89.005,"RA_OF_ASC_NODE":32.6414,"ARG_OF_PERICENTER":40.9986,"MEAN_ANOMALY":319.1404,"EPHEMERIS_TYPE":0,"CLASSIFICATION_TYPE":"U","NORAD_CAT_ID":62255,"ELEMENT_SET_NO":999,"REV_AT_EPOCH":11044,"BSTAR":9.3567e-5,"MEAN_MOTION_DOT":7.2e-7,"MEAN_MOTION_DDOT":0},{"OBJECT_NAME":"QIANFAN-55","OBJECT_ID":"2025-016A","EPOCH":"2026-03-04T11:14:18.760416","MEAN_MOTION":13.50996189,"ECCENTRICITY":0.0019401,"INCLINATION":88.9694,"RA_OF_ASC_NODE":94.755,"ARG_OF_PERICENTER":110.7682,"MEAN_ANOMALY":249.555,"EPHEMERIS_TYPE":0,"CLASSIFICATION_TYPE":"U","NORAD_CAT_ID":62785,"ELEMENT_SET_NO":999,"REV_AT_EPOCH":5822,"BSTAR":6.1098e-5,"MEAN_MOTION_DOT":5.2e-7,"MEAN_MOTION_DDOT":0},{"OBJECT_NAME":"QIANFAN-56","OBJECT_ID":"2025-016B","EPOCH":"2026-03-04T11:37:53.423040","MEAN_MOTION":13.50998097,"ECCENTRICITY":0.0018035,"INCLINATION":88.9667,"RA_OF_ASC_NODE":94.5675,"ARG_OF_PERICENTER":112.711,"MEAN_ANOMALY":247.595,"EPHEMERIS_TYPE":0,"CLASSIFICATION_TYPE":"U","NORAD_CAT_ID":62786,"ELEMENT_SET_NO":999,"REV_AT_EPOCH":5827,"BSTAR":6.5454e-5,"MEAN_MOTION_DOT":5.5e-7,"MEAN_MOTION_DDOT":0},{"OBJECT_NAME":"QIANFAN-57","OBJECT_ID":"2025-016C","EPOCH":"2026-03-04T10:38:43.514880","MEAN_MOTION":13.50997015,"ECCENTRICITY":0.0001359,"INCLINATION":88.9698,"RA_OF_ASC_NODE":94.7508,"ARG_OF_PERICENTER":97.8706,"MEAN_ANOMALY":262.2599,"EPHEMERIS_TYPE":0,"CLASSIFICATION_TYPE":"U","NORAD_CAT_ID":62787,"ELEMENT_SET_NO":999,"REV_AT_EPOCH":5823,"BSTAR":8.1992e-5,"MEAN_MOTION_DOT":6.5e-7,"MEAN_MOTION_DDOT":0},{"OBJECT_NAME":"QIANFAN-58","OBJECT_ID":"2025-016D","EPOCH":"2026-03-04T11:43:48.698976","MEAN_MOTION":13.50998647,"ECCENTRICITY":0.0016003,"INCLINATION":88.9667,"RA_OF_ASC_NODE":94.5524,"ARG_OF_PERICENTER":105.8194,"MEAN_ANOMALY":254.4722,"EPHEMERIS_TYPE":0,"CLASSIFICATION_TYPE":"U","NORAD_CAT_ID":62788,"ELEMENT_SET_NO":999,"REV_AT_EPOCH":5828,"BSTAR":9.0046e-5,"MEAN_MOTION_DOT":7.0e-7,"MEAN_MOTION_DDOT":0},{"OBJECT_NAME":"QIANFAN-59","OBJECT_ID":"2025-016E","EPOCH":"2026-03-04T10:32:55.484448","MEAN_MOTION":13.50994479,"ECCENTRICITY":0.0016336,"INCLINATION":88.9691,"RA_OF_ASC_NODE":94.6507,"ARG_OF_PERICENTER":109.2518,"MEAN_ANOMALY":251.0402,"EPHEMERIS_TYPE":0,"CLASSIFICATION_TYPE":"U","NORAD_CAT_ID":62789,"ELEMENT_SET_NO":999,"REV_AT_EPOCH":5827,"BSTAR":6.4484e-5,"MEAN_MOTION_DOT":5.4e-7,"MEAN_MOTION_DDOT":0},{"OBJECT_NAME":"QIANFAN-60","OBJECT_ID":"2025-016F","EPOCH":"2026-03-04T11:20:20.409216","MEAN_MOTION":13.50992444,"ECCENTRICITY":0.0017915,"INCLINATION":88.9672,"RA_OF_ASC_NODE":94.6031,"ARG_OF_PERICENTER":106.2357,"MEAN_ANOMALY":254.0767,"EPHEMERIS_TYPE":0,"CLASSIFICATION_TYPE":"U","NORAD_CAT_ID":62790,"ELEMENT_SET_NO":999,"REV_AT_EPOCH":5826,"BSTAR":4.6917e-5,"MEAN_MOTION_DOT":4.3e-7,"MEAN_MOTION_DDOT":0},{"OBJECT_NAME":"QIANFAN-61","OBJECT_ID":"2025-016G","EPOCH":"2026-03-04T12:07:44.773248","MEAN_MOTION":13.5099381,"ECCENTRICITY":0.0016841,"INCLINATION":88.9739,"RA_OF_ASC_NODE":94.8183,"ARG_OF_PERICENTER":105.4963,"MEAN_ANOMALY":254.8049,"EPHEMERIS_TYPE":0,"CLASSIFICATION_TYPE":"U","NORAD_CAT_ID":62791,"ELEMENT_SET_NO":999,"REV_AT_EPOCH":5828,"BSTAR":6.0471e-5,"MEAN_MOTION_DOT":5.1e-7,"MEAN_MOTION_DDOT":0},{"OBJECT_NAME":"QIANFAN-62","OBJECT_ID":"2025-016H","EPOCH":"2026-03-04T10:26:55.346784","MEAN_MOTION":13.50996507,"ECCENTRICITY":0.0018217,"INCLINATION":88.9686,"RA_OF_ASC_NODE":94.6498,"ARG_OF_PERICENTER":106.0776,"MEAN_ANOMALY":254.2382,"EPHEMERIS_TYPE":0,"CLASSIFICATION_TYPE":"U","NORAD_CAT_ID":62792,"ELEMENT_SET_NO":999,"REV_AT_EPOCH":5826,"BSTAR":6.832e-5,"MEAN_MOTION_DOT":5.6e-7,"MEAN_MOTION_DDOT":0},{"OBJECT_NAME":"QIANFAN-63","OBJECT_ID":"2025-016J","EPOCH":"2026-03-04T11:02:31.201440","MEAN_MOTION":13.50995123,"ECCENTRICITY":0.0018249,"INCLINATION":88.9693,"RA_OF_ASC_NODE":94.6042,"ARG_OF_PERICENTER":110.7939,"MEAN_ANOMALY":249.5169,"EPHEMERIS_TYPE":0,"CLASSIFICATION_TYPE":"U","NORAD_CAT_ID":62793,"ELEMENT_SET_NO":999,"REV_AT_EPOCH":5830,"BSTAR":6.2118e-5,"MEAN_MOTION_DOT":5.2e-7,"MEAN_MOTION_DDOT":0},{"OBJECT_NAME":"QIANFAN-64","OBJECT_ID":"2025-016K","EPOCH":"2026-03-04T12:01:49.048032","MEAN_MOTION":13.51005224,"ECCENTRICITY":0.0016206,"INCLINATION":88.968,"RA_OF_ASC_NODE":94.5632,"ARG_OF_PERICENTER":104.236,"MEAN_ANOMALY":256.0592,"EPHEMERIS_TYPE":0,"CLASSIFICATION_TYPE":"U","NORAD_CAT_ID":62794,"ELEMENT_SET_NO":999,"REV_AT_EPOCH":5830,"BSTAR":6.0453e-5,"MEAN_MOTION_DOT":5.1e-7,"MEAN_MOTION_DDOT":0},{"OBJECT_NAME":"QIANFAN-65","OBJECT_ID":"2025-016L","EPOCH":"2026-03-04T11:55:45.696288","MEAN_MOTION":13.51008709,"ECCENTRICITY":0.0016068,"INCLINATION":88.9676,"RA_OF_ASC_NODE":94.5865,"ARG_OF_PERICENTER":105.7821,"MEAN_ANOMALY":254.5104,"EPHEMERIS_TYPE":0,"CLASSIFICATION_TYPE":"U","NORAD_CAT_ID":62795,"ELEMENT_SET_NO":999,"REV_AT_EPOCH":5828,"BSTAR":6.2878e-5,"MEAN_MOTION_DOT":5.3e-7,"MEAN_MOTION_DDOT":0},{"OBJECT_NAME":"QIANFAN-66","OBJECT_ID":"2025-016M","EPOCH":"2026-03-04T10:50:34.662912","MEAN_MOTION":13.50996808,"ECCENTRICITY":0.0017186,"INCLINATION":88.9695,"RA_OF_ASC_NODE":94.5774,"ARG_OF_PERICENTER":102.1772,"MEAN_ANOMALY":258.1305,"EPHEMERIS_TYPE":0,"CLASSIFICATION_TYPE":"U","NORAD_CAT_ID":62796,"ELEMENT_SET_NO":999,"REV_AT_EPOCH":5832,"BSTAR":5.4505e-5,"MEAN_MOTION_DOT":4.7e-7,"MEAN_MOTION_DDOT":0},{"OBJECT_NAME":"QIANFAN-67","OBJECT_ID":"2025-016N","EPOCH":"2026-03-04T10:56:25.330272","MEAN_MOTION":13.50995194,"ECCENTRICITY":0.0017124,"INCLINATION":88.9685,"RA_OF_ASC_NODE":94.5946,"ARG_OF_PERICENTER":108.2155,"MEAN_ANOMALY":252.0862,"EPHEMERIS_TYPE":0,"CLASSIFICATION_TYPE":"U","NORAD_CAT_ID":62797,"ELEMENT_SET_NO":999,"REV_AT_EPOCH":5829,"BSTAR":6.416e-5,"MEAN_MOTION_DOT":5.4e-7,"MEAN_MOTION_DDOT":0},{"OBJECT_NAME":"QIANFAN-68","OBJECT_ID":"2025-016P","EPOCH":"2026-03-04T10:44:47.204448","MEAN_MOTION":13.51005204,"ECCENTRICITY":0.0017191,"INCLINATION":88.9689,"RA_OF_ASC_NODE":94.6436,"ARG_OF_PERICENTER":106.6749,"MEAN_ANOMALY":253.6291,"EPHEMERIS_TYPE":0,"CLASSIFICATION_TYPE":"U","NORAD_CAT_ID":62798,"ELEMENT_SET_NO":999,"REV_AT_EPOCH":5827,"BSTAR":9.2976e-5,"MEAN_MOTION_DOT":7.2e-7,"MEAN_MOTION_DDOT":0}]
