QIANFAN-52              
1 62253U 24232S   26063.42165061  .00000081  00000+0  10773-3 0  9992
2 62253  89.0052  32.8615 0014208 323.4853  36.5328 13.51000673 78976
QIANFAN-53              
1 62254U 24232T   26063.47511213  .00000060  00000+0  74677-4 0  9993
2 62254  89.0059  32.9667 0013132 325.1097  34.9192 13.51003354 78943
QIANFAN-54              
1 62255U 24232U   26063.44222740  .00000072  00000+0  93567-4 0  9997
2 62255  89.0050  32.6414 0003185  40.9986 319.1404 13.51002801110440
QIANFAN-55              
1 62785U 25016A   26063.46827269  .00000052  00000+0  61098-4 0  9997
2 62785  88.9694  94.7550 0019401 110.7682 249.5550 13.50996189 58222
QIANFAN-56              
1 62786U 25016B   26063.48464610  .00000055  00000+0  65454-4 0  9990
2 62786  88.9667  94.5675 0018035 112.7110 247.5950 13.50998097 58276
QIANFAN-57              
1 62787U 25016C   26063.44355920  .00000065  00000+0  81992-4 0  9996
2 62787  88.9698  94.7508 0001359  97.8706 262.2599 13.50997015 58231
QIANFAN-58              
1 62788U 25016D   26063.48875809  .00000070  00000+0  90046-4 0  9990
2 62788  88.9667  94.5524 0016003 105.8194 254.4722 13.50998647 58285
QIANFAN-59              
1 62789U 25016E   26063.43953107  .00000054  00000+0  64484-4 0  9993
2 62789  88.9691  94.6507 0016336 109.2518 251.0402 13.50994479 58278
QIANFAN-60              
1 62790U 25016F   26063.47245844  .00000043  00000+0  46917-4 0  9990
2 62790  88.9672  94.6031 0017915 106.2357 254.0767 13.50992444 58269
QIANFAN-61              
1 62791U 25016G   26063.50537932  .00000051  00000+0  60471-4 0  9997
2 62791  88.9739  94.8183 0016841 105.4963 254.8049 13.50993810 58286
QIANFAN-62              
1 62792U 25016H   26063.43536281  .00000056  00000+0  68320-4 0  9992
2 62792  88.9686  94.6498 0018217 106.0776 254.2382 13.50996507 58261
QIANFAN-63              
1 62793U 25016J   26063.46008335  .00000052  00000+0  62118-4 0  9995
2 62793  88.9693  94.6042 0018249 110.7939 249.5169 13.50995123 58301
QIANFAN-64              
1 62794U 25016K   26063.50126213  .00000051  00000+0  60453-4 0  9996
2 62794  88.9680  94.5632 0016206 104.2360 256.0592 13.51005224 58307
QIANFAN-65              
1 62795U 25016L   26063.49705667  .00000053  00000+0  62878-4 0  9996
2 62795  88.9676  94.5865 0016068 105.7821 254.5104 13.51008709 58285
QIANFAN-66              
1 62796U 25016M   26063.45179008  .00000047  00000+0  54505-4 0  9998
2 62796  88.9695  94.5774 0017186 102.1772 258.1305 13.50996808 58327
QIANFAN-67              
1 62797U 25016N   26063.45584873  .00000054  00000+0  64160-4 0  9995
2 62797  88.9685  94.5946 0017124 108.2155 252.0862 13.50995194 58296
QIANFAN-68              
1 62798U 25016P   26063.44776857  .00000072  00000+0  92976-4 0  9996
2 62798  88.9689  94.6436 0017191 106.6749 253.6291 13.51005204 58277
